TEVEL2-1                
1 63217U 25052H   26068.64782323  .00020683  00000+0  70600-3 0  9994
2 63217  97.3991 324.7682 0004767 104.8919 255.2849 15.30341923 54855
STARLINK-34107          
1 63960U 25099J   26067.37223542  .00054513  00000+0  19733-2 0  9990
2 63960  42.9974 183.7627 0001320 227.8250 132.2489 15.27623637 47133
